OPS 6582 (TRANSIT 5B-5) 
1 00965U 64083D   26115.82726169  .00000040  00000+0  42274-4 0  9993
2 00965  90.0797 202.6124 0043486  72.1933  48.6446 13.57007673 36517
LES-1                   
1 01002U 65008C   26114.46406861  .00000012  00000+0  50976-3 0  9993
2 01002  32.1389 171.9789 0015359  76.5352 283.6856  9.88355146210879
SOLRAD 7B               
1 01291U 65016D   26115.83861690  .00000018  00000+0  52211-4 0  9990
2 01291  70.0807 347.5592 0021758 196.6165 163.4230 13.94969260109401
SECOR 4 (EGRS 4)        
1 01315U 65027B   26115.69755834  .00000002  00000+0 -17086-4 0  9990
2 01315  90.2552  14.3804 0030585 340.6259  74.5371 12.92666996880149
TIROS 10                
1 01430U 65051A   26115.84920921  .00000174  00000+0  66253-4 0  9992
2 01430  98.4962 235.4291 0054333 235.4309 124.1747 14.41608863188372
ALOUETTE 2              
1 01804U 65098A   26115.63121043  .00000286  00000+0  93259-4 0  9993
2 01804  79.7990 321.3928 1330594 339.1339  15.9932 12.28311936672820
OV3-3                   
1 02389U 66070A   26115.82976060  .00009002  00000+0  40985-3 0  9993
2 02389  81.3310  17.1748 1015118 293.5014  56.2683 13.44333017591935
SECOR 7 (EGRS 7)        
1 02411U 66077B   26115.85026661  .00000026  00000+0  12261-1 0  9993
2 02411  90.3282 276.8305 0011856 108.8374 251.3764  8.59615488872882
ERS 15                  
1 02412U 66077C   26115.81718410  .00000002  00000+0  00000+0 0  9990
2 02412  90.3283 276.6229 0007294 118.1215 242.0374  8.59079452385963
ISIS 1                  
1 03669U 69009A   26115.09225699  .00000086  00000+0  56573-4 0  9998
2 03669  88.4449 150.2345 1707046 355.5315   3.1993 11.30424112353774
SECOR 13 (EGRS 13)      
1 03891U 69037B   26115.64673867 -.00000032  00000+0  18699-4 0  9990
2 03891  99.6566 349.3964 0039832  21.5012  38.6735 13.42974902794708
ATS 5                   
1 04068U 69069A   26115.90939282 -.00000184  00000+0  00000+0 0  9997
2 04068   0.2332 184.9616 0005593  97.7123 186.8698  0.99490355 45803
OPS 7613 (P/L 4)        
1 04237U 69082E   26115.72815470  .00000023  00000+0  55066-4 0  9990
2 04237  70.0155 215.9535 0021603 205.2727 265.2009 13.95987444878981
OPS 7613 (P/L 1)        
1 04256U 69082B   26115.90685056  .00000093  00000+0  10104-3 0  9996
2 04256  70.0087  77.3231 0017690 140.1914 220.0495 13.99182252883156
SHINSEI (MS-F2)         
1 05485U 71080A   26115.82236563  .00000034  00000+0  43914-4 0  9999
2 05485  32.0553 329.7135 0639252  52.8107 312.9126 12.74248652542570
PROSPERO (BLACK ARROW)  
1 05580U 71093A   26115.68604115  .00000693  00000+0  14401-3 0  9994
2 05580  82.0391 336.9238 0502098  17.8182 343.9896 14.01524729741175
OPS 7898 (P/L 2)        
1 05680U 71110C   26115.71135572 -.00000003  00000+0  49384-4 0  9990
2 05680  69.9870 111.2150 0010273 243.6193 116.3847 13.74754289341000
