[{"OBJECT_NAME":"OPS 6582 (TRANSIT 5B-5)","OBJECT_ID":"1964-083D","EPOCH":"2026-04-25T19:51:15.410016","MEAN_MOTION":13.57007673,"ECCENTRICITY":0.00434869,"INCLINATION":90.0797,"RA_OF_ASC_NODE":202.6124,"ARG_OF_PERICENTER":72.1933,"MEAN_ANOMALY":48.6446,"EPHEMERIS_TYPE":0,"CLASSIFICATION_TYPE":"U","NORAD_CAT_ID":965,"ELEMENT_SET_NO":999,"REV_AT_EPOCH":3651,"BSTAR":4.227352e-5,"MEAN_MOTION_DOT":4.0e-7,"MEAN_MOTION_DDOT":0},{"OBJECT_NAME":"LES-1","OBJECT_ID":"1965-008C","EPOCH":"2026-04-24T11:08:15.527904","MEAN_MOTION":9.88355146,"ECCENTRICITY":0.00153591,"INCLINATION":32.1389,"RA_OF_ASC_NODE":171.9789,"ARG_OF_PERICENTER":76.5352,"MEAN_ANOMALY":283.6856,"EPHEMERIS_TYPE":0,"CLASSIFICATION_TYPE":"U","NORAD_CAT_ID":1002,"ELEMENT_SET_NO":999,"REV_AT_EPOCH":21087,"BSTAR":0.00050976301,"MEAN_MOTION_DOT":1.2e-7,"MEAN_MOTION_DDOT":0},{"OBJECT_NAME":"SOLRAD 7B","OBJECT_ID":"1965-016D","EPOCH":"2026-04-25T20:07:36.500160","MEAN_MOTION":13.9496926,"ECCENTRICITY":0.00217585,"INCLINATION":70.0807,"RA_OF_ASC_NODE":347.5592,"ARG_OF_PERICENTER":196.6165,"MEAN_ANOMALY":163.423,"EPHEMERIS_TYPE":0,"CLASSIFICATION_TYPE":"U","NORAD_CAT_ID":1291,"ELEMENT_SET_NO":999,"REV_AT_EPOCH":10940,"BSTAR":5.2210687e-5,"MEAN_MOTION_DOT":1.8e-7,"MEAN_MOTION_DDOT":0},{"OBJECT_NAME":"SECOR 4 (EGRS 4)","OBJECT_ID":"1965-027B","EPOCH":"2026-04-25T16:44:29.040576","MEAN_MOTION":12.92666996,"ECCENTRICITY":0.00305851,"INCLINATION":90.2552,"RA_OF_ASC_NODE":14.3804,"ARG_OF_PERICENTER":340.6259,"MEAN_ANOMALY":74.5371,"EPHEMERIS_TYPE":0,"CLASSIFICATION_TYPE":"U","NORAD_CAT_ID":1315,"ELEMENT_SET_NO":999,"REV_AT_EPOCH":88014,"BSTAR":-1.7085621e-5,"MEAN_MOTION_DOT":2.0e-8,"MEAN_MOTION_DDOT":0},{"OBJECT_NAME":"TIROS 10","OBJECT_ID":"1965-051A","EPOCH":"2026-04-25T20:22:51.675744","MEAN_MOTION":14.41608863,"ECCENTRICITY":0.00543331,"INCLINATION":98.4962,"RA_OF_ASC_NODE":235.4291,"ARG_OF_PERICENTER":235.4309,"MEAN_ANOMALY":124.1747,"EPHEMERIS_TYPE":0,"CLASSIFICATION_TYPE":"U","NORAD_CAT_ID":1430,"ELEMENT_SET_NO":999,"REV_AT_EPOCH":18837,"BSTAR":6.6253108e-5,"MEAN_MOTION_DOT":1.74e-6,"MEAN_MOTION_DDOT":0},{"OBJECT_NAME":"ALOUETTE 2","OBJECT_ID":"1965-098A","EPOCH":"2026-04-25T15:08:56.581152","MEAN_MOTION":12.28311936,"ECCENTRICITY":0.13305945,"INCLINATION":79.799,"RA_OF_ASC_NODE":321.3928,"ARG_OF_PERICENTER":339.1339,"MEAN_ANOMALY":15.9932,"EPHEMERIS_TYPE":0,"CLASSIFICATION_TYPE":"U","NORAD_CAT_ID":1804,"ELEMENT_SET_NO":999,"REV_AT_EPOCH":67282,"BSTAR":9.3259438e-5,"MEAN_MOTION_DOT":2.86e-6,"MEAN_MOTION_DDOT":0},{"OBJECT_NAME":"OV3-3","OBJECT_ID":"1966-070A","EPOCH":"2026-04-25T19:54:51.315840","MEAN_MOTION":13.44333017,"ECCENTRICITY":0.10151184,"INCLINATION":81.331,"RA_OF_ASC_NODE":17.1748,"ARG_OF_PERICENTER":293.5014,"MEAN_ANOMALY":56.2683,"EPHEMERIS_TYPE":0,"CLASSIFICATION_TYPE":"U","NORAD_CAT_ID":2389,"ELEMENT_SET_NO":999,"REV_AT_EPOCH":59193,"BSTAR":0.00040984563,"MEAN_MOTION_DOT":9.002e-5,"MEAN_MOTION_DDOT":0},{"OBJECT_NAME":"SECOR 7 (EGRS 7)","OBJECT_ID":"1966-077B","EPOCH":"2026-04-25T20:24:23.035104","MEAN_MOTION":8.59615488,"ECCENTRICITY":0.00118569,"INCLINATION":90.3282,"RA_OF_ASC_NODE":276.8305,"ARG_OF_PERICENTER":108.8374,"MEAN_ANOMALY":251.3764,"EPHEMERIS_TYPE":0,"CLASSIFICATION_TYPE":"U","NORAD_CAT_ID":2411,"ELEMENT_SET_NO":999,"REV_AT_EPOCH":87288,"BSTAR":0.01226058,"MEAN_MOTION_DOT":2.6e-7,"MEAN_MOTION_DDOT":0},{"OBJECT_NAME":"ERS 15","OBJECT_ID":"1966-077C","EPOCH":"2026-04-25T19:36:44.706240","MEAN_MOTION":8.59079452,"ECCENTRICITY":0.00072942,"INCLINATION":90.3283,"RA_OF_ASC_NODE":276.6229,"ARG_OF_PERICENTER":118.1215,"MEAN_ANOMALY":242.0374,"EPHEMERIS_TYPE":0,"CLASSIFICATION_TYPE":"U","NORAD_CAT_ID":2412,"ELEMENT_SET_NO":999,"REV_AT_EPOCH":38596,"BSTAR":0,"MEAN_MOTION_DOT":2.0e-8,"MEAN_MOTION_DDOT":0},{"OBJECT_NAME":"ISIS 1","OBJECT_ID":"1969-009A","EPOCH":"2026-04-25T02:12:51.003936","MEAN_MOTION":11.30424112,"ECCENTRICITY":0.17070466,"INCLINATION":88.4449,"RA_OF_ASC_NODE":150.2345,"ARG_OF_PERICENTER":355.5315,"MEAN_ANOMALY":3.1993,"EPHEMERIS_TYPE":0,"CLASSIFICATION_TYPE":"U","NORAD_CAT_ID":3669,"ELEMENT_SET_NO":999,"REV_AT_EPOCH":35377,"BSTAR":5.6572635e-5,"MEAN_MOTION_DOT":8.6e-7,"MEAN_MOTION_DDOT":0},{"OBJECT_NAME":"SECOR 13 (EGRS 13)","OBJECT_ID":"1969-037B","EPOCH":"2026-04-25T15:31:18.221088","MEAN_MOTION":13.42974902,"ECCENTRICITY":0.00398325,"INCLINATION":99.6566,"RA_OF_ASC_NODE":349.3964,"ARG_OF_PERICENTER":21.5012,"MEAN_ANOMALY":38.6735,"EPHEMERIS_TYPE":0,"CLASSIFICATION_TYPE":"U","NORAD_CAT_ID":3891,"ELEMENT_SET_NO":999,"REV_AT_EPOCH":79470,"BSTAR":1.869923e-5,"MEAN_MOTION_DOT":-3.2e-7,"MEAN_MOTION_DDOT":0},{"OBJECT_NAME":"ATS 5","OBJECT_ID":"1969-069A","EPOCH":"2026-04-25T21:49:31.539648","MEAN_MOTION":0.99490355,"ECCENTRICITY":0.00055936,"INCLINATION":0.2332,"RA_OF_ASC_NODE":184.9616,"ARG_OF_PERICENTER":97.7123,"MEAN_ANOMALY":186.8698,"EPHEMERIS_TYPE":0,"CLASSIFICATION_TYPE":"U","NORAD_CAT_ID":4068,"ELEMENT_SET_NO":999,"REV_AT_EPOCH":4580,"BSTAR":0,"MEAN_MOTION_DOT":-1.84e-6,"MEAN_MOTION_DDOT":0},{"OBJECT_NAME":"OPS 7613 (P/L 4)","OBJECT_ID":"1969-082E","EPOCH":"2026-04-25T17:28:32.566080","MEAN_MOTION":13.95987444,"ECCENTRICITY":0.00216038,"INCLINATION":70.0155,"RA_OF_ASC_NODE":215.9535,"ARG_OF_PERICENTER":205.2727,"MEAN_ANOMALY":265.2009,"EPHEMERIS_TYPE":0,"CLASSIFICATION_TYPE":"U","NORAD_CAT_ID":4237,"ELEMENT_SET_NO":999,"REV_AT_EPOCH":87898,"BSTAR":5.5065563e-5,"MEAN_MOTION_DOT":2.3e-7,"MEAN_MOTION_DDOT":0},{"OBJECT_NAME":"OPS 7613 (P/L 1)","OBJECT_ID":"1969-082B","EPOCH":"2026-04-25T21:45:51.888384","MEAN_MOTION":13.99182252,"ECCENTRICITY":0.00176908,"INCLINATION":70.0087,"RA_OF_ASC_NODE":77.3231,"ARG_OF_PERICENTER":140.1914,"MEAN_ANOMALY":220.0495,"EPHEMERIS_TYPE":0,"CLASSIFICATION_TYPE":"U","NORAD_CAT_ID":4256,"ELEMENT_SET_NO":999,"REV_AT_EPOCH":88315,"BSTAR":0.00010103683,"MEAN_MOTION_DOT":9.3e-7,"MEAN_MOTION_DDOT":0},{"OBJECT_NAME":"SHINSEI (MS-F2)","OBJECT_ID":"1971-080A","EPOCH":"2026-04-25T19:44:12.390432","MEAN_MOTION":12.74248652,"ECCENTRICITY":0.06392522,"INCLINATION":32.0553,"RA_OF_ASC_NODE":329.7135,"ARG_OF_PERICENTER":52.8107,"MEAN_ANOMALY":312.9126,"EPHEMERIS_TYPE":0,"CLASSIFICATION_TYPE":"U","NORAD_CAT_ID":5485,"ELEMENT_SET_NO":999,"REV_AT_EPOCH":54257,"BSTAR":4.3913987e-5,"MEAN_MOTION_DOT":3.4e-7,"MEAN_MOTION_DDOT":0},{"OBJECT_NAME":"PROSPERO (BLACK ARROW)","OBJECT_ID":"1971-093A","EPOCH":"2026-04-25T16:27:53.955360","MEAN_MOTION":14.01524729,"ECCENTRICITY":0.05020981,"INCLINATION":82.0391,"RA_OF_ASC_NODE":336.9238,"ARG_OF_PERICENTER":17.8182,"MEAN_ANOMALY":343.9896,"EPHEMERIS_TYPE":0,"CLASSIFICATION_TYPE":"U","NORAD_CAT_ID":5580,"ELEMENT_SET_NO":999,"REV_AT_EPOCH":74117,"BSTAR":0.00014400972,"MEAN_MOTION_DOT":6.93e-6,"MEAN_MOTION_DDOT":0},{"OBJECT_NAME":"OPS 7898 (P/L 2)","OBJECT_ID":"1971-110C","EPOCH":"2026-04-25T17:04:21.134208","MEAN_MOTION":13.74754289,"ECCENTRICITY":0.00102731,"INCLINATION":69.987,"RA_OF_ASC_NODE":111.215,"ARG_OF_PERICENTER":243.6193,"MEAN_ANOMALY":116.3847,"EPHEMERIS_TYPE":0,"CLASSIFICATION_TYPE":"U","NORAD_CAT_ID":5680,"ELEMENT_SET_NO":999,"REV_AT_EPOCH":34100,"BSTAR":4.9384192e-5,"MEAN_MOTION_DOT":-3.0e-8,"MEAN_MOTION_DDOT":0}]
